[{"OBJECT_NAME":"ONEWEB-0218","OBJECT_ID":"2021-031E","EPOCH":"2025-10-19T02:41:50.191872","MEAN_MOTION":13.14503049,"ECCENTRICITY":0.00026343,"INCLINATION":87.9045,"RA_OF_ASC_NODE":337.7047,"ARG_OF_PERICENTER":111.943,"MEAN_ANOMALY":248.198,"EPHEMERIS_TYPE":0,"CLASSIFICATION_TYPE":"U","NORAD_CAT_ID":48214,"ELEMENT_SET_NO":999,"REV_AT_EPOCH":21670,"BSTAR":0.00064151183,"MEAN_MOTION_DOT":2.51e-6,"MEAN_MOTION_DDOT":0},{"OBJECT_NAME":"ONEWEB-0209","OBJECT_ID":"2021-031F","EPOCH":"2025-10-19T04:15:27.277056","MEAN_MOTION":13.14503356,"ECCENTRICITY":0.00020257,"INCLINATION":87.9035,"RA_OF_ASC_NODE":337.7334,"ARG_OF_PERICENTER":93.0281,"MEAN_ANOMALY":267.108,"EPHEMERIS_TYPE":0,"CLASSIFICATION_TYPE":"U","NORAD_CAT_ID":48215,"ELEMENT_SET_NO":999,"REV_AT_EPOCH":21671,"BSTAR":-0.00013822776,"MEAN_MOTION_DOT":-3.8e-7,"MEAN_MOTION_DDOT":0},{"OBJECT_NAME":"ONEWEB-0198","OBJECT_ID":"2021-031G","EPOCH":"2025-10-19T03:52:47.722944","MEAN_MOTION":13.14504579,"ECCENTRICITY":0.00023639,"INCLINATION":87.9032,"RA_OF_ASC_NODE":337.7344,"ARG_OF_PERICENTER":99.1952,"MEAN_ANOMALY":260.9445,"EPHEMERIS_TYPE":0,"CLASSIFICATION_TYPE":"U","NORAD_CAT_ID":48216,"ELEMENT_SET_NO":999,"REV_AT_EPOCH":21682,"BSTAR":-0.00030634334,"MEAN_MOTION_DOT":-1.01e-6,"MEAN_MOTION_DDOT":0},{"OBJECT_NAME":"ONEWEB-0189","OBJECT_ID":"2021-031H","EPOCH":"2025-10-19T04:10:52.716000","MEAN_MOTION":13.14504487,"ECCENTRICITY":0.0002292,"INCLINATION":87.9031,"RA_OF_ASC_NODE":337.7051,"ARG_OF_PERICENTER":99.8845,"MEAN_ANOMALY":260.2543,"EPHEMERIS_TYPE":0,"CLASSIFICATION_TYPE":"U","NORAD_CAT_ID":48217,"ELEMENT_SET_NO":999,"REV_AT_EPOCH":21656,"BSTAR":-6.0518791e-5,"MEAN_MOTION_DOT":-1.0e-7,"MEAN_MOTION_DDOT":0},{"OBJECT_NAME":"ONEWEB-0196","OBJECT_ID":"2021-031J","EPOCH":"2025-10-19T03:38:54.441600","MEAN_MOTION":13.14503859,"ECCENTRICITY":0.00020296,"INCLINATION":87.9035,"RA_OF_ASC_NODE":337.7249,"ARG_OF_PERICENTER":96.5448,"MEAN_ANOMALY":263.5913,"EPHEMERIS_TYPE":0,"CLASSIFICATION_TYPE":"U","NORAD_CAT_ID":48218,"ELEMENT_SET_NO":999,"REV_AT_EPOCH":21656,"BSTAR":-0.00021913184,"MEAN_MOTION_DOT":-6.8e-7,"MEAN_MOTION_DDOT":0},{"OBJECT_NAME":"ONEWEB-0183","OBJECT_ID":"2021-031K","EPOCH":"2025-10-19T04:51:59.814432","MEAN_MOTION":13.14502473,"ECCENTRICITY":0.00018094,"INCLINATION":87.9026,"RA_OF_ASC_NODE":337.7231,"ARG_OF_PERICENTER":90.5329,"MEAN_ANOMALY":269.6008,"EPHEMERIS_TYPE":0,"CLASSIFICATION_TYPE":"U","NORAD_CAT_ID":48219,"ELEMENT_SET_NO":999,"REV_AT_EPOCH":21666,"BSTAR":0.00071178149,"MEAN_MOTION_DOT":2.77e-6,"MEAN_MOTION_DDOT":0},{"OBJECT_NAME":"ONEWEB-0185","OBJECT_ID":"2021-031L","EPOCH":"2025-10-19T03:40:02.416800","MEAN_MOTION":13.14500962,"ECCENTRICITY":0.00020619,"INCLINATION":87.9035,"RA_OF_ASC_NODE":337.7012,"ARG_OF_PERICENTER":86.0895,"MEAN_ANOMALY":274.047,"EPHEMERIS_TYPE":0,"CLASSIFICATION_TYPE":"U","NORAD_CAT_ID":48220,"ELEMENT_SET_NO":999,"REV_AT_EPOCH":21658,"BSTAR":-0.00050799398,"MEAN_MOTION_DOT":-1.76e-6,"MEAN_MOTION_DDOT":0},{"OBJECT_NAME":"ONEWEB-0187","OBJECT_ID":"2021-031M","EPOCH":"2025-10-19T03:11:19.076352","MEAN_MOTION":13.14504397,"ECCENTRICITY":0.00020853,"INCLINATION":87.9034,"RA_OF_ASC_NODE":337.7516,"ARG_OF_PERICENTER":92.1596,"MEAN_ANOMALY":267.9773,"EPHEMERIS_TYPE":0,"CLASSIFICATION_TYPE":"U","NORAD_CAT_ID":48221,"ELEMENT_SET_NO":999,"REV_AT_EPOCH":21659,"BSTAR":0.00046008315,"MEAN_MOTION_DOT":1.83e-6,"MEAN_MOTION_DDOT":0},{"OBJECT_NAME":"ONEWEB-0192","OBJECT_ID":"2021-031N","EPOCH":"2025-10-19T04:17:44.424960","MEAN_MOTION":13.14502628,"ECCENTRICITY":0.00019598,"INCLINATION":87.9026,"RA_OF_ASC_NODE":337.7345,"ARG_OF_PERICENTER":99.1565,"MEAN_ANOMALY":260.9786,"EPHEMERIS_TYPE":0,"CLASSIFICATION_TYPE":"U","NORAD_CAT_ID":48222,"ELEMENT_SET_NO":999,"REV_AT_EPOCH":21651,"BSTAR":0.0003183251,"MEAN_MOTION_DOT":1.31e-6,"MEAN_MOTION_DDOT":0},{"OBJECT_NAME":"ONEWEB-0219","OBJECT_ID":"2021-031P","EPOCH":"2025-10-19T03:48:02.832768","MEAN_MOTION":13.14502963,"ECCENTRICITY":0.00020515,"INCLINATION":87.9035,"RA_OF_ASC_NODE":337.7119,"ARG_OF_PERICENTER":91.2296,"MEAN_ANOMALY":268.9069,"EPHEMERIS_TYPE":0,"CLASSIFICATION_TYPE":"U","NORAD_CAT_ID":48223,"ELEMENT_SET_NO":999,"REV_AT_EPOCH":21671,"BSTAR":-0.00042975317,"MEAN_MOTION_DOT":-1.47e-6,"MEAN_MOTION_DDOT":0},{"OBJECT_NAME":"ONEWEB-0202","OBJECT_ID":"2021-031Q","EPOCH":"2025-10-19T03:20:39.739776","MEAN_MOTION":13.14502271,"ECCENTRICITY":0.00025716,"INCLINATION":87.9031,"RA_OF_ASC_NODE":337.7302,"ARG_OF_PERICENTER":105.4206,"MEAN_ANOMALY":254.7208,"EPHEMERIS_TYPE":0,"CLASSIFICATION_TYPE":"U","NORAD_CAT_ID":48224,"ELEMENT_SET_NO":999,"REV_AT_EPOCH":21669,"BSTAR":0.00016825238,"MEAN_MOTION_DOT":7.5e-7,"MEAN_MOTION_DDOT":0},{"OBJECT_NAME":"ONEWEB-0204","OBJECT_ID":"2021-031R","EPOCH":"2025-10-19T04:09:44.026272","MEAN_MOTION":13.14503497,"ECCENTRICITY":0.0001701,"INCLINATION":87.9028,"RA_OF_ASC_NODE":337.7115,"ARG_OF_PERICENTER":88.873,"MEAN_ANOMALY":271.2595,"EPHEMERIS_TYPE":0,"CLASSIFICATION_TYPE":"U","NORAD_CAT_ID":48225,"ELEMENT_SET_NO":999,"REV_AT_EPOCH":21659,"BSTAR":-0.00012257374,"MEAN_MOTION_DOT":-3.3e-7,"MEAN_MOTION_DDOT":0},{"OBJECT_NAME":"ONEWEB-0205","OBJECT_ID":"2021-031S","EPOCH":"2025-10-19T03:34:20.866368","MEAN_MOTION":13.14502957,"ECCENTRICITY":0.00019914,"INCLINATION":87.9039,"RA_OF_ASC_NODE":337.7091,"ARG_OF_PERICENTER":92.9793,"MEAN_ANOMALY":267.1565,"EPHEMERIS_TYPE":0,"CLASSIFICATION_TYPE":"U","NORAD_CAT_ID":48226,"ELEMENT_SET_NO":999,"REV_AT_EPOCH":21660,"BSTAR":-0.000364169,"MEAN_MOTION_DOT":-1.22e-6,"MEAN_MOTION_DDOT":0},{"OBJECT_NAME":"ONEWEB-0206","OBJECT_ID":"2021-031T","EPOCH":"2025-10-19T04:45:07.859232","MEAN_MOTION":13.14504016,"ECCENTRICITY":0.00016821,"INCLINATION":87.9045,"RA_OF_ASC_NODE":337.6849,"ARG_OF_PERICENTER":104.5607,"MEAN_ANOMALY":255.5709,"EPHEMERIS_TYPE":0,"CLASSIFICATION_TYPE":"U","NORAD_CAT_ID":48227,"ELEMENT_SET_NO":999,"REV_AT_EPOCH":21656,"BSTAR":0.00067358338,"MEAN_MOTION_DOT":2.63e-6,"MEAN_MOTION_DDOT":0},{"OBJECT_NAME":"ONEWEB-0182","OBJECT_ID":"2021-031U","EPOCH":"2025-10-19T04:38:17.891232","MEAN_MOTION":13.14502651,"ECCENTRICITY":0.00017688,"INCLINATION":87.9026,"RA_OF_ASC_NODE":337.7248,"ARG_OF_PERICENTER":90.7452,"MEAN_ANOMALY":269.388,"EPHEMERIS_TYPE":0,"CLASSIFICATION_TYPE":"U","NORAD_CAT_ID":48228,"ELEMENT_SET_NO":999,"REV_AT_EPOCH":21677,"BSTAR":0.00060947742,"MEAN_MOTION_DOT":2.39e-6,"MEAN_MOTION_DDOT":0},{"OBJECT_NAME":"ONEWEB-0186","OBJECT_ID":"2021-031V","EPOCH":"2025-10-19T04:54:16.818048","MEAN_MOTION":13.14501419,"ECCENTRICITY":0.00019367,"INCLINATION":87.9045,"RA_OF_ASC_NODE":337.6897,"ARG_OF_PERICENTER":92.5775,"MEAN_ANOMALY":267.5577,"EPHEMERIS_TYPE":0,"CLASSIFICATION_TYPE":"U","NORAD_CAT_ID":48229,"ELEMENT_SET_NO":999,"REV_AT_EPOCH":21672,"BSTAR":0.00029826436,"MEAN_MOTION_DOT":1.23e-6,"MEAN_MOTION_DDOT":0}]
